QIANFAN-234             
1 69863U 26155R   26203.44861260  .00000069  00000+0  23403-4 0  9995
2 69863  89.0063  60.1200 0030364 197.0528 162.9647 14.24414200  2411
QIANFAN-235             
1 69864U 26155S   26203.58677837  .00000221  00000+0  84935-4 0  9993
2 69864  89.0062  60.1035 0031038 198.4095 161.5979 14.26766757  2434
QIANFAN-236             
1 69865U 26155T   26203.59391280  .00000044  00000+0  13478-4 0  9997
2 69865  89.0063  60.1047 0029548 197.6449 162.3718 14.21103834  2432
QIANFAN-237             
1 69866U 26155U   26203.58923412  .00000066  00000+0  22213-4 0  9996
2 69866  89.0061  60.1039 0030699 197.8454 162.1663 14.24432385  2424
QIANFAN-238             
1 69867U 26155V   26203.58659989  .00000243  00000+0  93859-4 0  9993
2 69867  89.0062  60.1035 0031084 198.1287 161.8801 14.26739724  2439
CZ-8A R/B               
1 69868U 26155W   26203.54224362  .00000342  00000+0  80502-4 0  9994
2 69868  88.9653  59.9963 0106600  78.9170 282.4002 14.48273928  2451
CAS500-4                
1 69869U 26156A   26203.55855332 -.00000138  00000+0 -63910-4 0  9993
2 69869  98.9941 103.5112 0011920 179.3271 180.7912 13.99858641  2134
TRANSPORTER-17 OBJECT B 
1 69870U 26156B   26203.56943424  .00001873  00000+0  19182-3 0  9992
2 69870  97.7510 103.7673 0008437  95.6730 264.5451 14.91659743  2277
PELICAN-11              
1 69871U 26156C   26203.56913533  .00000280  00000+0  33389-4 0  9998
2 69871  97.7549 103.7774 0007566  99.0497 261.1579 14.91673690  2082
TRANSPORTER-17 OBJECT D 
1 69872U 26156D   26203.57893187  .00000674  00000+0  74232-4 0  9991
2 69872  97.7515 103.7567 0005050  68.7725 291.4033 14.90714902  2272
TRANSPORTER-17 OBJECT E 
1 69873U 26156E   26203.57009063  .00000629  00000+0  68256-4 0  9993
2 69873  97.7551 103.7761 0007405  96.3252 263.8810 14.91581343  2275
TRANSPORTER-17 OBJECT F 
1 69874U 26156F   26203.57748884  .00001399  00000+0  14761-3 0  9991
2 69874  97.7519 103.7597 0004704  82.0074 278.1678 14.90865456  2270
TRANSPORTER-17 OBJECT G 
1 69875U 26156G   26203.57698518  .00001012  00000+0  10821-3 0  9995
2 69875  97.7506 103.7580 0005149  79.1849 280.9949 14.90911266  2273
TRANSPORTER-17 OBJECT H 
1 69876U 26156H   26203.56678396  .00000246  00000+0  29817-4 0  9991
2 69876  97.7231 103.7616 0008596 103.7848 256.4328 14.91891827  2271
TRANSPORTER-17 OBJECT J 
1 69877U 26156J   26203.57264349  .00002743  00000+0  28051-3 0  9994
2 69877  97.7542 103.7711 0006639  91.4147 268.7832 14.91351903  2276
TRANSPORTER-17 OBJECT K 
1 69878U 26156K   26203.50161804  .00000577  00000+0  62848-4 0  9996
2 69878  97.7510 103.7023 0008374  97.0775 263.1396 14.91717100  2263
TRANSPORTER-17 OBJECT L 
1 69879U 26156L   26203.57099638  .00000964  00000+0  10182-3 0  9992
2 69879  97.7548 103.7737 0007193  94.3507 265.8534 14.91496743  2279
TRANSPORTER-17 OBJECT M 
1 69880U 26156M   26203.57580061  .00001377  00000+0  14469-3 0  9990
2 69880  97.7452 103.7498 0006365  74.4685 285.7235 14.91030434  2275
TRANSPORTER-17 OBJECT N 
1 69881U 26156N   26203.57580311  .00000527  00000+0  58836-4 0  9992
2 69881  97.7487 103.7565 0005759  79.7237 280.4630 14.91022441  2276
TRANSPORTER-17 OBJECT P 
1 69882U 26156P   26203.50849948  .00003081  00000+0  31671-3 0  9995
2 69882  97.7560 103.7039 0005090  94.9660 265.2139 14.91063607  2265
TRANSPORTER-17 OBJECT Q 
1 69883U 26156Q   26203.57288261  .00000463  00000+0  52014-4 0  9994
2 69883  97.7541 103.7697 0006551  91.1919 269.0050 14.91304931  2277
YAM-17                  
1 69884U 26156R   26203.56757238  .00001047  00000+0  10925-3 0  9992
2 69884  97.7510 103.7704 0008586  99.7998 260.4191 14.91833436  2272
TRANSPORTER-17 OBJECT S 
1 69885U 26156S   26203.57148480  .00000561  00000+0  61632-4 0  9999
2 69885  97.7518 103.7668 0007431  90.6303 269.5767 14.91443140  2276
TRANSPORTER-17 OBJECT T 
1 69886U 26156T   26203.56751875  .00000673  00000+0  72190-4 0  9992
2 69886  97.7548 103.7782 0008307 102.2293 257.9857 14.91833762  2261
TRANSPORTER-17 OBJECT U 
1 69887U 26156U   26203.50072601  .00000129  00000+0  18351-4 0  9995
2 69887  97.7546 103.7116 0008157 102.2836 257.9296 14.91799657  2268
TRANSPORTER-17 OBJECT V 
1 69888U 26156V   26203.50562827  .00001353  00000+0  14123-3 0  9992
2 69888  97.7560 103.7076 0006494  92.7064 267.4898 14.91331247  2102
TRANSPORTER-17 OBJECT W 
1 69889U 26156W   26203.57159875  .00001642  00000+0  16976-3 0  9994
2 69889  97.7547 103.7727 0007076  92.5021 267.7008 14.91446394  2273
TRANSPORTER-17 OBJECT X 
1 69890U 26156X   26203.43285916  .00000605  00000+0  65333-4 0  9997
2 69890  97.7541 103.6454 0008584 103.0744 257.1434 14.91883827  2250
TRANSPORTER-17 OBJECT Y 
1 69891U 26156Y   26203.57064722  .00000564  00000+0  61826-4 0  9990
2 69891  97.7510 103.7661 0007790  92.2323 267.9788 14.91525655  2273
