OBJECT_NAME,OBJECT_ID,EPOCH,MEAN_MOTION,ECCENTRICITY,INCLINATION,RA_OF_ASC_NODE,ARG_OF_PERICENTER,MEAN_ANOMALY,EPHEMERIS_TYPE,CLASSIFICATION_TYPE,NORAD_CAT_ID,ELEMENT_SET_NO,REV_AT_EPOCH,BSTAR,MEAN_MOTION_DOT,MEAN_MOTION_DDOT
QIANFAN-234,2026-155R,2026-07-22T10:46:00.128640,14.24414200,.00303644,89.0063,60.1200,197.0528,162.9647,0,U,69863,999,241,.23403273E-4,.69E-6,0
QIANFAN-235,2026-155S,2026-07-22T14:04:57.651168,14.26766757,.00310385,89.0062,60.1035,198.4095,161.5979,0,U,69864,999,243,.84935185E-4,.221E-5,0
QIANFAN-236,2026-155T,2026-07-22T14:15:14.065920,14.21103834,.0029548,89.0063,60.1047,197.6449,162.3718,0,U,69865,999,243,.13478403E-4,.44E-6,0
QIANFAN-237,2026-155U,2026-07-22T14:08:29.827968,14.24432385,.00306998,89.0061,60.1039,197.8454,162.1663,0,U,69866,999,242,.22212883E-4,.66E-6,0
QIANFAN-238,2026-155V,2026-07-22T14:04:42.230496,14.26739724,.00310841,89.0062,60.1035,198.1287,161.8801,0,U,69867,999,243,.93858922E-4,.243E-5,0
CZ-8A R/B,2026-155W,2026-07-22T13:00:49.848768,14.48273928,.01066007,88.9653,59.9963,78.9170,282.4002,0,U,69868,999,245,.80501908E-4,.342E-5,0
TRANSPORTER-17 OBJECT A,2026-156A,2026-07-22T13:24:19.006848,13.99858641,.00119207,98.9941,103.5112,179.3271,180.7912,0,U,69869,999,213,-.63909516E-4,-.138E-5,0
TRANSPORTER-17 OBJECT B,2026-156B,2026-07-22T13:39:59.118336,14.91659743,.00084378,97.7510,103.7673,95.6730,264.5451,0,U,69870,999,227,.19182082E-3,.1873E-4,0
TRANSPORTER-17 OBJECT C,2026-156C,2026-07-22T13:39:33.292512,14.91673690,.00075664,97.7549,103.7774,99.0497,261.1579,0,U,69871,999,208,.33389346E-4,.28E-5,0
TRANSPORTER-17 OBJECT D,2026-156D,2026-07-22T13:53:39.713568,14.90714902,.00050502,97.7515,103.7567,68.7725,291.4033,0,U,69872,999,227,.74231702E-4,.674E-5,0
TRANSPORTER-17 OBJECT E,2026-156E,2026-07-22T13:40:55.830432,14.91581343,.00074055,97.7551,103.7761,96.3252,263.8810,0,U,69873,999,227,.68256209E-4,.629E-5,0
TRANSPORTER-17 OBJECT F,2026-156F,2026-07-22T13:51:35.035776,14.90865456,.00047049,97.7519,103.7597,82.0074,278.1678,0,U,69874,999,227,.14761057E-3,.1399E-4,0
TRANSPORTER-17 OBJECT G,2026-156G,2026-07-22T13:50:51.519552,14.90911266,.00051491,97.7506,103.7580,79.1849,280.9949,0,U,69875,999,227,.10820958E-3,.1012E-4,0
TRANSPORTER-17 OBJECT H,2026-156H,2026-07-22T13:36:10.134144,14.91891827,.00085963,97.7231,103.7616,103.7848,256.4328,0,U,69876,999,227,.29816854E-4,.246E-5,0
TRANSPORTER-17 OBJECT J,2026-156J,2026-07-22T13:44:36.397536,14.91351903,.00066394,97.7542,103.7711,91.4147,268.7832,0,U,69877,999,227,.28051117E-3,.2743E-4,0
TRANSPORTER-17 OBJECT K,2026-156K,2026-07-22T12:02:19.798656,14.91717100,.0008374,97.7510,103.7023,97.0775,263.1396,0,U,69878,999,226,.62847846E-4,.577E-5,0
TRANSPORTER-17 OBJECT L,2026-156L,2026-07-22T13:42:14.087232,14.91496743,.00071933,97.7548,103.7737,94.3507,265.8534,0,U,69879,999,227,.10182307E-3,.964E-5,0
TRANSPORTER-17 OBJECT M,2026-156M,2026-07-22T13:49:09.172704,14.91030434,.00063659,97.7452,103.7498,74.4685,285.7235,0,U,69880,999,227,.14469368E-3,.1377E-4,0
TRANSPORTER-17 OBJECT N,2026-156N,2026-07-22T13:49:09.388704,14.91022441,.00057595,97.7487,103.7565,79.7237,280.4630,0,U,69881,999,227,.58835978E-4,.527E-5,0
TRANSPORTER-17 OBJECT P,2026-156P,2026-07-22T12:12:14.355072,14.91063607,.00050901,97.7560,103.7039,94.9660,265.2139,0,U,69882,999,226,.31670577E-3,.3081E-4,0
TRANSPORTER-17 OBJECT Q,2026-156Q,2026-07-22T13:44:57.057504,14.91304931,.00065516,97.7541,103.7697,91.1919,269.0050,0,U,69883,999,227,.52014131E-4,.463E-5,0
TRANSPORTER-17 OBJECT R,2026-156R,2026-07-22T13:37:18.253632,14.91833436,.0008586,97.7510,103.7704,99.7998,260.4191,0,U,69884,999,227,.10924814E-3,.1047E-4,0
TRANSPORTER-17 OBJECT S,2026-156S,2026-07-22T13:42:56.286720,14.91443140,.00074316,97.7518,103.7668,90.6303,269.5767,0,U,69885,999,227,.61632218E-4,.561E-5,0
TRANSPORTER-17 OBJECT T,2026-156T,2026-07-22T13:37:13.620000,14.91833762,.00083075,97.7548,103.7782,102.2293,257.9857,0,U,69886,999,226,.72190113E-4,.673E-5,0
TRANSPORTER-17 OBJECT U,2026-156U,2026-07-22T12:01:02.727264,14.91799657,.00081579,97.7546,103.7116,102.2836,257.9296,0,U,69887,999,226,.18350564E-4,.129E-5,0
TRANSPORTER-17 OBJECT V,2026-156V,2026-07-22T12:08:06.282528,14.91331247,.00064946,97.7560,103.7076,92.7064,267.4898,0,U,69888,999,210,.14123432E-3,.1353E-4,0
TRANSPORTER-17 OBJECT W,2026-156W,2026-07-22T13:43:06.132000,14.91446394,.00070767,97.7547,103.7727,92.5021,267.7008,0,U,69889,999,227,.16976265E-3,.1642E-4,0
TRANSPORTER-17 OBJECT X,2026-156X,2026-07-22T10:23:19.031424,14.91883827,.00085841,97.7541,103.6454,103.0744,257.1434,0,U,69890,999,225,.65333438E-4,.605E-5,0
TRANSPORTER-17 OBJECT Y,2026-156Y,2026-07-22T13:41:43.919808,14.91525655,.00077905,97.7510,103.7661,92.2323,267.9788,0,U,69891,999,227,.61826364E-4,.564E-5,0
